{"fetched_at":"2026-03-30T06:02:59Z","count":15439,"tles":[{"name":"STARLINK-32278","line1":"1 60356U 24138B   26087.76711001  .00001072  00000+0  48318-4 0  9991","line2":"2 60356  53.1605 221.3206 0001203  90.4601 269.6538 15.30195252 93547","category":"Starlink"}]}